KUIPER-00089            
1 64834U 25151U   25344.33284192  .00000539  00000+0  99760-4 0  9990
2 64834  51.9019 320.7214 0001954  44.2661 315.8458 14.79938647 22289
KUIPER-00090            
1 64835U 25151V   25344.32456733  .00006743  00000+0  94462-3 0  9998
2 64835  51.9000 312.4436 0004394  61.8759 298.2646 14.78462443 22398
KUIPER-00091            
1 64836U 25151W   25344.20049717 -.00000238  00000+0 -18599-5 0  9990
2 64836  51.9004 318.8141 0008769 358.4085   1.6848 14.79938735 22295
KUIPER-00092            
1 64837U 25151X   25344.32622333  .00007041  00000+0  94672-3 0  9996
2 64837  51.9018 325.7417 0006494 309.5612  50.4776 14.80149502 23426
KUIPER-00093            
1 64838U 25151Y   25344.25719844 -.00008284  00000+0 -10574-2 0  9993
2 64838  51.9016 328.5458 0014222 313.9211  46.0576 14.79899931 22168
KUIPER-00094            
1 64839U 25151Z   25344.33240728  .00018689  00000+0  13305-2 0  9996
2 64839  51.8903 313.3866 0004574 349.1692  10.9182 15.04638868 22387
KUIPER-00081            
1 65132U 25171A   25344.66668981 -.00884769  00000+0 -70886-1 0  9994
2 65132  51.9102 183.6262 0003206 210.9209 304.4370 15.02603442  5002
KUIPER-00088            
1 65133U 25171B   25344.64005159  .00003459  00000+0  51979-3 0  9996
2 65133  51.8982 199.4504 0008139 181.3239 178.7702 14.76715870 19607
